{
  "norad_id": 59248,
  "name": "STARLINK-31405",
  "history": [
    {
      "epoch": "2026-03-28T13:58:07.214016Z",
      "apogee_km": 483.66573705981773,
      "perigee_km": 482.45542180680513,
      "latitude_deg": 6.934341738265189e-06,
      "longitude_deg": 1.4644402767251878,
      "height_km": 482.55807458837216,
      "semi_major_axis_km": 6861.197579433311,
      "eccentricity": 8.82e-05,
      "inclination_deg": 43.0029,
      "raan_deg": 36.9949,
      "arg_perigee_deg": 297.4574,
      "mean_anomaly_deg": 62.6188,
      "mean_motion_rev_day": 15.27576165
    },
    {
      "epoch": "2026-03-29T04:05:30.755040Z",
      "apogee_km": 483.81748502210667,
      "perigee_km": 482.24764942512684,
      "latitude_deg": 1.147045467088697e-05,
      "longitude_deg": 145.71063798294122,
      "height_km": 482.7003789181704,
      "semi_major_axis_km": 6861.1695672236165,
      "eccentricity": 0.0001144,
      "inclination_deg": 43.0047,
      "raan_deg": 33.6692,
      "arg_perigee_deg": 277.9972,
      "mean_anomaly_deg": 82.075,
      "mean_motion_rev_day": 15.2758552
    },
    {
      "epoch": "2026-03-30T03:37:51.506976Z",
      "apogee_km": 483.73246846955226,
      "perigee_km": 482.32455730630863,
      "latitude_deg": 4.913917637500132e-05,
      "longitude_deg": 146.1194959499856,
      "height_km": 482.7654184792149,
      "semi_major_axis_km": 6861.16551288793,
      "eccentricity": 0.0001026,
      "inclination_deg": 43.0047,
      "raan_deg": 28.1312,
      "arg_perigee_deg": 273.2573,
      "mean_anomaly_deg": 86.8162,
      "mean_motion_rev_day": 15.27586874
    },
    {
      "epoch": "2026-03-30T13:02:48.830208Z",
      "apogee_km": 483.58466068519374,
      "perigee_km": 482.5391511959069,
      "latitude_deg": -6.120373956740758e-05,
      "longitude_deg": 2.2795337251406886,
      "height_km": 482.4042954905257,
      "semi_major_axis_km": 6861.1989059405505,
      "eccentricity": 7.619e-05,
      "inclination_deg": 43.0041,
      "raan_deg": 25.9169,
      "arg_perigee_deg": 326.1143,
      "mean_anomaly_deg": 33.9659,
      "mean_motion_rev_day": 15.27575722
    },
    {
      "epoch": "2026-03-30T20:53:35.840544Z",
      "apogee_km": 483.88627567297317,
      "perigee_km": 482.2527596252521,
      "latitude_deg": -3.4626898592833515e-05,
      "longitude_deg": -117.5882538175448,
      "height_km": 482.8954223420228,
      "semi_major_axis_km": 6861.206517649112,
      "eccentricity": 0.00011904,
      "inclination_deg": 43.0042,
      "raan_deg": 24.0672,
      "arg_perigee_deg": 266.5665,
      "mean_anomaly_deg": 93.505,
      "mean_motion_rev_day": 15.2757318
    },
    {
      "epoch": "2026-03-31T04:44:22.161408Z",
      "apogee_km": 483.8742567228919,
      "perigee_km": 482.2340203693111,
      "latitude_deg": -2.8450046354044376e-05,
      "longitude_deg": 122.55111760321532,
      "height_km": 482.99239512962055,
      "semi_major_axis_km": 6861.191138546101,
      "eccentricity": 0.00011953,
      "inclination_deg": 43.0056,
      "raan_deg": 22.2218,
      "arg_perigee_deg": 258.6684,
      "mean_anomaly_deg": 101.4033,
      "mean_motion_rev_day": 15.27578316
    }
  ]
}